{"type":"FeatureCollection","features":[{"type":"Feature","geometry":{"type":"Point","coordinates":[-38.9469813,-12.2414981]},"properties":{"nome":"Ponto de Táxi do Shopping","tipo":"taxi"}},{"type":"Feature","geometry":{"type":"Point","coordinates":[-38.9654866,-12.2548963]},"properties":{"nome":"Subway","tipo":"fast_food"}},{"type":"Feature","geometry":{"type":"Point","coordinates":[-38.9544196,-12.2549469]},"properties":{"nome":"Empada Carioca","tipo":"fast_food"}},{"type":"Feature","geometry":{"type":"Point","coordinates":[-38.9651435,-12.2545222]},"properties":{"nome":"Bradesco","tipo":"bank"}},{"type":"Feature","geometry":{"type":"Point","coordinates":[-38.9561663,-12.254884]},"properties":{"nome":"Alla Spina","tipo":"restaurant"}},{"type":"Feature","geometry":{"type":"Point","coordinates":[-38.956521,-12.2548982]},"properties":{"nome":"Spacca Napoli","tipo":"restaurant"}},{"type":"Feature","geometry":{"type":"Point","coordinates":[-38.962251,-12.2498193]},"properties":{"nome":"Fórum Filinto Bastos","tipo":"courthouse"}},{"type":"Feature","geometry":{"type":"Point","coordinates":[-38.9625187,-12.2531221]},"properties":{"nome":"Todo Dia","tipo":"bicycle_parking"}},{"type":"Feature","geometry":{"type":"Point","coordinates":[-38.9481465,-12.2457894]},"properties":{"nome":"Farmácia Brito","tipo":"pharmacy"}},{"type":"Feature","geometry":{"type":"Point","coordinates":[-38.9485679,-12.2470565]},"properties":{"nome":"Escola José de Anchieta","tipo":"school"}},{"type":"Feature","geometry":{"type":"Point","coordinates":[-38.9731768,-12.2543649]},"properties":{"nome":"Posto Centro","tipo":"fuel"}},{"type":"Feature","geometry":{"type":"Point","coordinates":[-38.9483888,-12.2486049]},"properties":{"nome":"Pasta Fast","tipo":"restaurant"}},{"type":"Feature","geometry":{"type":"Point","coordinates":[-38.9531356,-12.2518999]},"properties":{"nome":"Seu Zé Lounge Bar","tipo":"bar"}},{"type":"Feature","geometry":{"type":"Point","coordinates":[-38.948679,-12.2475435]},"properties":{"nome":"Botekim","tipo":"bar"}},{"type":"Feature","geometry":{"type":"Point","coordinates":[-38.9482929,-12.248077]},"properties":{"nome":"Acarajé","tipo":"fast_food"}},{"type":"Feature","geometry":{"type":"Point","coordinates":[-38.9572243,-12.2537735]},"properties":{"nome":"Amarelo Gema","tipo":"restaurant"}},{"type":"Feature","geometry":{"type":"Point","coordinates":[-38.9619382,-12.2510484]},"properties":{"nome":"O Bicho","tipo":"veterinary"}},{"type":"Feature","geometry":{"type":"Point","coordinates":[-38.962194,-12.2510853]},"properties":{"nome":"Predileto","tipo":"restaurant"}},{"type":"Feature","geometry":{"type":"Point","coordinates":[-38.9547868,-12.2527423]},"properties":{"nome":"Localiza","tipo":"car_rental"}},{"type":"Feature","geometry":{"type":"Point","coordinates":[-38.947953,-12.2449845]},"properties":{"nome":"Farmácia Avante","tipo":"pharmacy"}},{"type":"Feature","geometry":{"type":"Point","coordinates":[-38.9562806,-12.253634]},"properties":{"nome":"Flor Maracujá","tipo":"restaurant"}},{"type":"Feature","geometry":{"type":"Point","coordinates":[-38.947322,-12.2441943]},"properties":{"nome":"Stillo Pizza","tipo":"restaurant"}},{"type":"Feature","geometry":{"type":"Point","coordinates":[-38.9483759,-12.2487616]},"properties":{"nome":"Ultrafarma","tipo":"pharmacy"}},{"type":"Feature","geometry":{"type":"Point","coordinates":[-38.9471295,-12.239428]},"properties":{"nome":"The House","tipo":"nightclub"}},{"type":"Feature","geometry":{"type":"Point","coordinates":[-38.9468715,-12.2397274]},"properties":{"nome":"Creperia Mariposa","tipo":"restaurant"}},{"type":"Feature","geometry":{"type":"Point","coordinates":[-38.9468688,-12.2536601]},"properties":{"nome":"Antiquário Pub","tipo":"pub"}},{"type":"Feature","geometry":{"type":"Point","coordinates":[-38.9477939,-12.2541288]},"properties":{"nome":"Jeca Total","tipo":"bar"}},{"type":"Feature","geometry":{"type":"Point","coordinates":[-38.9562343,-12.2518661]},"properties":{"nome":"Stop Nil","tipo":"restaurant"}},{"type":"Feature","geometry":{"type":"Point","coordinates":[-38.9561777,-12.2538372]},"properties":{"nome":"Wasabi","tipo":"restaurant"}},{"type":"Feature","geometry":{"type":"Point","coordinates":[-38.9564275,-12.2520389]},"properties":{"nome":"Red Hashi","tipo":"restaurant"}},{"type":"Feature","geometry":{"type":"Point","coordinates":[-38.9561723,-12.2539738]},"properties":{"nome":"Unique Cafe Lounge","tipo":"cafe"}},{"type":"Feature","geometry":{"type":"Point","coordinates":[-38.9638273,-12.2408465]},"properties":{"nome":"Ponto do Macarrão","tipo":"restaurant"}},{"type":"Feature","geometry":{"type":"Point","coordinates":[-38.9630334,-12.2381151]},"properties":{"nome":"TRE-BA / Fórum Eleitoral","tipo":"courthouse"}},{"type":"Feature","geometry":{"type":"Point","coordinates":[-38.9614831,-12.2516774]},"properties":{"nome":"Escola Castro Alves","tipo":"school"}},{"type":"Feature","geometry":{"type":"Point","coordinates":[-38.9572515,-12.2549768]},"properties":{"nome":"Piatto","tipo":"restaurant"}},{"type":"Feature","geometry":{"type":"Point","coordinates":[-38.947054,-12.2391503]},"properties":{"nome":"Cravo e Panela","tipo":"restaurant"}},{"type":"Feature","geometry":{"type":"Point","coordinates":[-38.9542488,-12.2525652]},"properties":{"nome":"Aprisco","tipo":"restaurant"}},{"type":"Feature","geometry":{"type":"Point","coordinates":[-38.9543587,-12.2539423]},"properties":{"nome":"Estacionamento MaterDei EMEC","tipo":"parking"}},{"type":"Feature","geometry":{"type":"Point","coordinates":[-38.9581322,-12.2526574]},"properties":{"nome":"Cat & Dog","tipo":"veterinary"}},{"type":"Feature","geometry":{"type":"Point","coordinates":[-38.9548273,-12.2533068]},"properties":{"nome":"Clínica Maria Quiteria","tipo":"doctors"}},{"type":"Feature","geometry":{"type":"Point","coordinates":[-38.9548605,-12.2541125]},"properties":{"nome":"Doenças do Coração","tipo":"clinic"}},{"type":"Feature","geometry":{"type":"Point","coordinates":[-38.9543114,-12.2522153]},"properties":{"nome":"Drogasil","tipo":"pharmacy"}},{"type":"Feature","geometry":{"type":"Point","coordinates":[-38.9579228,-12.2526615]},"properties":{"nome":"FisioSaúde","tipo":"clinic"}},{"type":"Feature","geometry":{"type":"Point","coordinates":[-38.9569689,-12.2535693]},"properties":{"nome":"Hospital Ortopédico","tipo":"clinic"}},{"type":"Feature","geometry":{"type":"Point","coordinates":[-38.9570726,-12.2537963]},"properties":{"nome":"Neocenter","tipo":"dentist"}},{"type":"Feature","geometry":{"type":"Point","coordinates":[-38.954736,-12.2522699]},"properties":{"nome":"Odonto Club","tipo":"dentist"}},{"type":"Feature","geometry":{"type":"Point","coordinates":[-38.9581086,-12.252357]},"properties":{"nome":"Opera Idiomas","tipo":"school"}},{"type":"Feature","geometry":{"type":"Point","coordinates":[-38.9550677,-12.251854]},"properties":{"nome":"Oxente Menina","tipo":"restaurant"}},{"type":"Feature","geometry":{"type":"Point","coordinates":[-38.9578859,-12.2519735]},"properties":{"nome":"Paraíso da Carne do Sol","tipo":"restaurant"}},{"type":"Feature","geometry":{"type":"Point","coordinates":[-38.9579778,-12.251817]},"properties":{"nome":"Espaço Vegetariano","tipo":"restaurant"}},{"type":"Feature","geometry":{"type":"Point","coordinates":[-38.9547065,-12.2513653]},"properties":{"nome":"Sol de Verão Sorveteria e Pizzaria","tipo":"fast_food"}},{"type":"Feature","geometry":{"type":"Point","coordinates":[-38.9547115,-12.2515645]},"properties":{"nome":"Bate Papo","tipo":"restaurant"}},{"type":"Feature","geometry":{"type":"Point","coordinates":[-38.946329,-12.2409913]},"properties":{"nome":"Menor Preço","tipo":"fuel"}},{"type":"Feature","geometry":{"type":"Point","coordinates":[-38.9463107,-12.2378111]},"properties":{"nome":"Top Boliche Bar","tipo":"bar"}},{"type":"Feature","geometry":{"type":"Point","coordinates":[-38.9591984,-12.2506173]},"properties":{"nome":"Shell","tipo":"fuel"}},{"type":"Feature","geometry":{"type":"Point","coordinates":[-38.9554224,-12.2543374]},"properties":{"nome":"Comunicare","tipo":"clinic"}},{"type":"Feature","geometry":{"type":"Point","coordinates":[-38.9466188,-12.2412546]},"properties":{"nome":"Pague Menos","tipo":"pharmacy"}},{"type":"Feature","geometry":{"type":"Point","coordinates":[-38.9469179,-12.2549208]},"properties":{"nome":"Colégio Gênesis","tipo":"school"}},{"type":"Feature","geometry":{"type":"Point","coordinates":[-38.9669631,-12.2548403]},"properties":{"nome":"Farmácia Silva","tipo":"pharmacy"}},{"type":"Feature","geometry":{"type":"Point","coordinates":[-38.9671947,-12.2548106]},"properties":{"nome":"Life Odonto","tipo":"dentist"}},{"type":"Feature","geometry":{"type":"Point","coordinates":[-38.963905,-12.2549782]},"properties":{"nome":"Posto Modelo","tipo":"fuel"}},{"type":"Feature","geometry":{"type":"Point","coordinates":[-38.9460182,-12.2394246]},"properties":{"nome":"Bradesco","tipo":"bank"}},{"type":"Feature","geometry":{"type":"Point","coordinates":[-38.9529559,-12.2514247]},"properties":{"nome":"Polícia Federal","tipo":"police"}},{"type":"Feature","geometry":{"type":"Point","coordinates":[-38.9539718,-12.2488828]},"properties":{"nome":"Radiola Lanchonete Cultural","tipo":"fast_food"}},{"type":"Feature","geometry":{"type":"Point","coordinates":[-38.9572454,-12.2543901]},"properties":{"nome":"Gastros Bahia","tipo":"clinic"}},{"type":"Feature","geometry":{"type":"Point","coordinates":[-38.9565678,-12.2520397]},"properties":{"nome":"Rádio Jovem Pan","tipo":"studio"}},{"type":"Feature","geometry":{"type":"Point","coordinates":[-38.9592623,-12.2535299]},"properties":{"nome":"Clínica Orthos","tipo":"dentist"}},{"type":"Feature","geometry":{"type":"Point","coordinates":[-38.9492789,-12.2456255]},"properties":{"nome":"Tonha do Salgado","tipo":"fast_food"}},{"type":"Feature","geometry":{"type":"Point","coordinates":[-38.9611103,-12.2469368]},"properties":{"nome":"Juizados Especiais da Comarca de Feira de Santana","tipo":"courthouse"}},{"type":"Feature","geometry":{"type":"Point","coordinates":[-38.9518131,-12.23691]},"properties":{"nome":"Juiz Jorge","tipo":"school"}},{"type":"Feature","geometry":{"type":"Point","coordinates":[-38.9460618,-12.2395183]},"properties":{"nome":"plenitude","tipo":"place_of_worship"}},{"type":"Feature","geometry":{"type":"Point","coordinates":[-38.9477361,-12.2415619]},"properties":{"nome":"Orient Cinemas","tipo":"cinema"}},{"type":"Feature","geometry":{"type":"Point","coordinates":[-38.9488232,-12.2414627]},"properties":{"nome":"Banco do Brasil","tipo":"bank"}},{"type":"Feature","geometry":{"type":"Point","coordinates":[-38.9479257,-12.2413686]},"properties":{"nome":"Bob's","tipo":"fast_food"}},{"type":"Feature","geometry":{"type":"Point","coordinates":[-38.9481182,-12.2414754]},"properties":{"nome":"McDonald's","tipo":"fast_food"}},{"type":"Feature","geometry":{"type":"Point","coordinates":[-38.9478997,-12.2412059]},"properties":{"nome":"Giraffas","tipo":"fast_food"}},{"type":"Feature","geometry":{"type":"Point","coordinates":[-38.9489845,-12.2414728]},"properties":{"nome":"Caixa Econômica Federal","tipo":"bank"}},{"type":"Feature","geometry":{"type":"Point","coordinates":[-38.9477696,-12.2413254]},"properties":{"nome":"Casa do Pão de Queijo","tipo":"cafe"}},{"type":"Feature","geometry":{"type":"Point","coordinates":[-38.9486437,-12.2414423]},"properties":{"nome":"Confidence Câmbio","tipo":"bureau_de_change"}},{"type":"Feature","geometry":{"type":"Point","coordinates":[-38.9479257,-12.2416101]},"properties":{"nome":"Spoleto","tipo":"fast_food"}},{"type":"Feature","geometry":{"type":"Point","coordinates":[-38.9480141,-12.2412796]},"properties":{"nome":"Yan Ping","tipo":"restaurant"}},{"type":"Feature","geometry":{"type":"Point","coordinates":[-38.9481198,-12.2412553]},"properties":{"nome":"Fino Café","tipo":"cafe"}},{"type":"Feature","geometry":{"type":"Point","coordinates":[-38.9482048,-12.241491]},"properties":{"nome":"Firenze Gelateria Italiana","tipo":"ice_cream"}},{"type":"Feature","geometry":{"type":"Point","coordinates":[-38.9684966,-12.2401685]},"properties":{"nome":"Centro de Ensino e Cultura Doutor Eduardo Froes da Motta","tipo":"school"}},{"type":"Feature","geometry":{"type":"Point","coordinates":[-38.9731987,-12.2391331]},"properties":{"nome":"Colegio Municipal Coriolano Carvalho","tipo":"school"}},{"type":"Feature","geometry":{"type":"Point","coordinates":[-38.94818,-12.241656]},"properties":{"nome":"Gelato Borelli","tipo":"ice_cream"}},{"type":"Feature","geometry":{"type":"Point","coordinates":[-38.9476076,-12.241441]},"properties":{"nome":"Drogaria São Paulo","tipo":"pharmacy"}},{"type":"Feature","geometry":{"type":"Point","coordinates":[-38.9476909,-12.2411133]},"properties":{"nome":"Havanna","tipo":"cafe"}},{"type":"Feature","geometry":{"type":"Point","coordinates":[-38.9648551,-12.2491012]},"properties":{"nome":"Igreja Batista Avivamento Mundial","tipo":"place_of_worship"}},{"type":"Feature","geometry":{"type":"Point","coordinates":[-38.9477912,-12.2415996]},"properties":{"nome":"Burger King","tipo":"fast_food"}},{"type":"Feature","geometry":{"type":"Point","coordinates":[-38.947701,-12.2414444]},"properties":{"nome":"Outback Steakhouse","tipo":"restaurant"}},{"type":"Feature","geometry":{"type":"Point","coordinates":[-38.9480002,-12.2415427]},"properties":{"nome":"Subway","tipo":"fast_food"}},{"type":"Feature","geometry":{"type":"Point","coordinates":[-38.9498576,-12.2422083]},"properties":{"nome":"Famárcia Brito","tipo":"pharmacy"}},{"type":"Feature","geometry":{"type":"Point","coordinates":[-38.9728656,-12.2534987]},"properties":{"nome":"Drogasil","tipo":"pharmacy"}},{"type":"Feature","geometry":{"type":"Point","coordinates":[-38.9641748,-12.2438257]},"properties":{"nome":"Anhanguera","tipo":"university"}},{"type":"Feature","geometry":{"type":"Point","coordinates":[-38.9652468,-12.2536749]},"properties":{"nome":"Pague Menos","tipo":"pharmacy"}},{"type":"Feature","geometry":{"type":"Point","coordinates":[-38.9652008,-12.2516952]},"properties":{"nome":"Pague Menos","tipo":"pharmacy"}},{"type":"Feature","geometry":{"type":"Point","coordinates":[-38.9654419,-12.2532371]},"properties":{"nome":"Farmácia Brito","tipo":"pharmacy"}}]}